ORBCOMM FM103 [+]       
1 40091U 14040F   23239.40465019  .00000667  00000+0  18831-3 0  9993
2 40091  47.0050 247.5543 0001221 164.8976 195.1945 14.55840978467898
ORBCOMM FM114 [+]       
1 41179U 15081A   23239.16627470  .00000892  00000+0  23914-3 0  9999
2 41179  47.0026 158.0527 0001556 219.8248 140.2522 14.55855710408225
ORBCOMM FM105 [-]       
1 41181U 15081C   23239.17933247  .00000351  00000+0  14740-3 0  9992
2 41181  47.0032  10.9103 0002530 245.6496 114.4119 14.43985452405323
ORBCOMM FM110 [+]       
1 41182U 15081D   23239.14303253  .00001030  00000+0  27031-3 0  9990
2 41182  47.0016 157.5912 0001987  11.6316 348.4614 14.55846068408097
ORBCOMM FM112 [+]       
1 41184U 15081F   23239.38525003  .00000811  00000+0  22088-3 0  9990
2 41184  46.9989  65.4794 0001811 245.8061 114.2634 14.55834769409452
ORBCOMM FM113 [+]       
1 41185U 15081G   23239.36182773  .00000922  00000+0  24590-3 0  9995
2 41185  47.0013  65.8066 0001503 260.4314  99.6401 14.55847697409431
